start=new Date('2022-11-23T00:00:00.000Z').valueOf();
sats=[{"REF_FRAME":"TEME","CLASSIFICATION_TYPE":"U","SITE":"AFETR","FILE":"3667517","NORAD_CAT_ID":"53915","RA_OF_ASC_NODE":"321.2512","OBJECT_TYPE":"PAYLOAD","GP_ID":"218505819","ELEMENT_SET_NO":"999","APOAPSIS":"352.719","TIME_SYSTEM":"UTC","MEAN_ELEMENT_THEORY":"SGP4","ECCENTRICITY":"0.00040610","MEAN_MOTION_DOT":"0.00084483","OBJECT_ID":"2022-119AF","TLE_LINE2":"2 53915  53.2122 321.2512 0004061   8.9033 176.9143 15.73120414  1303","EPHEMERIS_TYPE":"0","ARG_OF_PERICENTER":"8.9033","RCS_SIZE":"LARGE","MEAN_MOTION":"15.73120414","EPOCH":"2022-11-22T22:00:00.999936","REV_AT_EPOCH":"130","MEAN_MOTION_DDOT":"0.0000000000000","BSTAR":"0.00060217000000","INCLINATION":"53.2122","PERIOD":"91.538","MEAN_ANOMALY":"176.9143","CENTER_NAME":"EARTH","SEMIMAJOR_AXIS":"6728.122","PERIAPSIS":"347.255","DECAY_DATE":null,"LAUNCH_DATE":"2022-09-24","OBJECT_NAME":"STARLINK-5017","TLE_LINE1":"1 53915U 22119AF  22326.91667824  .00084483  00000-0  60217-3 0  9992","COUNTRY_CODE":"US"},{"RCS_SIZE":"LARGE","MEAN_MOTION":"15.73226092","EPOCH":"2022-11-22T22:00:00.999936","OBJECT_NAME":"STARLINK-5051","LAUNCH_DATE":"2022-09-24","TLE_LINE1":"1 53916U 22119AG  22326.91667824 -.00013311  00000-0 -90414-4 0  9990","COUNTRY_CODE":"US","REV_AT_EPOCH":"130","MEAN_MOTION_DDOT":"0.0000000000000","BSTAR":"-0.00009041400000","INCLINATION":"53.2178","MEAN_ANOMALY":"232.0884","PERIOD":"91.532","CENTER_NAME":"EARTH","SEMIMAJOR_AXIS":"6727.821","PERIAPSIS":"347.347","DECAY_DATE":null,"NORAD_CAT_ID":"53916","RA_OF_ASC_NODE":"321.1627","OBJECT_TYPE":"PAYLOAD","GP_ID":"218505983","ELEMENT_SET_NO":"999","APOAPSIS":"352.025","REF_FRAME":"TEME","SITE":"AFETR","CLASSIFICATION_TYPE":"U","FILE":"3667517","OBJECT_ID":"2022-119AG","TLE_LINE2":"2 53916  53.2178 321.1627 0003477   7.8443 232.0884 15.73226092  1309","EPHEMERIS_TYPE":"0","ARG_OF_PERICENTER":"7.8443","TIME_SYSTEM":"UTC","MEAN_ELEMENT_THEORY":"SGP4","ECCENTRICITY":"0.00034770","MEAN_MOTION_DOT":"-0.00013311"},{"PERIAPSIS":"347.050","SEMIMAJOR_AXIS":"6727.885","DECAY_DATE":null,"REV_AT_EPOCH":"130","MEAN_MOTION_DDOT":"0.0000000000000","BSTAR":"-0.00007551500000","INCLINATION":"53.2125","CENTER_NAME":"EARTH","PERIOD":"91.533","MEAN_ANOMALY":"185.7493","COUNTRY_CODE":"US","TLE_LINE1":"1 53917U 22119AH  22326.91667824 -.00011215  00000-0 -75515-4 0  9997","LAUNCH_DATE":"2022-09-24","OBJECT_NAME":"STARLINK-5036","EPOCH":"2022-11-22T22:00:00.999936","MEAN_MOTION":"15.73203533","RCS_SIZE":"LARGE","MEAN_MOTION_DOT":"-0.00011215","TIME_SYSTEM":"UTC","ECCENTRICITY":"0.00040140","MEAN_ELEMENT_THEORY":"SGP4","ARG_OF_PERICENTER":"2.0269","TLE_LINE2":"2 53917  53.2125 321.2479 0004014   2.0269 185.7493 15.73203533  1304","OBJECT_ID":"2022-119AH","EPHEMERIS_TYPE":"0","REF_FRAME":"TEME","FILE":"3667517","SITE":"AFETR","CLASSIFICATION_TYPE":"U","ELEMENT_SET_NO":"999","GP_ID":"218506476","OBJECT_TYPE":"PAYLOAD","APOAPSIS":"352.451","NORAD_CAT_ID":"53917","RA_OF_ASC_NODE":"321.2479"},{"OBJECT_TYPE":"PAYLOAD","ELEMENT_SET_NO":"999","GP_ID":"218506967","APOAPSIS":"352.413","NORAD_CAT_ID":"53918","RA_OF_ASC_NODE":"321.2451","REF_FRAME":"TEME","CLASSIFICATION_TYPE":"U","SITE":"AFETR","FILE":"3667517","ARG_OF_PERICENTER":"0.8850","OBJECT_ID":"2022-119AJ","TLE_LINE2":"2 53918  53.2140 321.2451 0003928   0.8850 189.2699 15.73196518  1308","EPHEMERIS_TYPE":"0","MEAN_MOTION_DOT":"-0.00009513","TIME_SYSTEM":"UTC","ECCENTRICITY":"0.00039280","MEAN_ELEMENT_THEORY":"SGP4","EPOCH":"2022-11-22T22:00:00.999936","RCS_SIZE":"LARGE","MEAN_MOTION":"15.73196518","COUNTRY_CODE":"US","OBJECT_NAME":"STARLINK-5012","LAUNCH_DATE":"2022-09-24","TLE_LINE1":"1 53918U 22119AJ  22326.91667824 -.00009513  00000-0 -63388-4 0  9991","SEMIMAJOR_AXIS":"6727.905","PERIAPSIS":"347.127","DECAY_DATE":null,"MEAN_MOTION_DDOT":"0.0000000000000","BSTAR":"-0.00006338800000","REV_AT_EPOCH":"130","INCLINATION":"53.2140","MEAN_ANOMALY":"189.2699","PERIOD":"91.533","CENTER_NAME":"EARTH"},{"COUNTRY_CODE":"US","OBJECT_NAME":"STARLINK-5023","LAUNCH_DATE":"2022-09-24","TLE_LINE1":"1 53919U 22119AK  22326.91667824  .00083729  00000-0  59650-3 0  9997","DECAY_DATE":null,"SEMIMAJOR_AXIS":"6728.077","PERIAPSIS":"347.304","MEAN_ANOMALY":"189.7034","PERIOD":"91.537","CENTER_NAME":"EARTH","MEAN_MOTION_DDOT":"0.0000000000000","INCLINATION":"53.2133","BSTAR":"0.00059650000000","REV_AT_EPOCH":"130","EPOCH":"2022-11-22T22:00:00.999936","MEAN_MOTION":"15.73136235","RCS_SIZE":"LARGE","ARG_OF_PERICENTER":"1.0730","EPHEMERIS_TYPE":"0","OBJECT_ID":"2022-119AK","TLE_LINE2":"2 53919  53.2133 321.2414 0003921   1.0730 189.7034 15.73136235  1301","MEAN_MOTION_DOT":"0.00083729","ECCENTRICITY":"0.00039210","MEAN_ELEMENT_THEORY":"SGP4","TIME_SYSTEM":"UTC","APOAPSIS":"352.580","OBJECT_TYPE":"PAYLOAD","ELEMENT_SET_NO":"999","GP_ID":"218506147","RA_OF_ASC_NODE":"321.2414","NORAD_CAT_ID":"53919","CLASSIFICATION_TYPE":"U","SITE":"AFETR","FILE":"3667517","REF_FRAME":"TEME"},{"REF_FRAME":"TEME","SITE":"AFETR","CLASSIFICATION_TYPE":"U","FILE":"3667319","OBJECT_TYPE":"PAYLOAD","GP_ID":"218476363","ELEMENT_SET_NO":"999","APOAPSIS":"352.581","NORAD_CAT_ID":"53920","RA_OF_ASC_NODE":"321.2388","MEAN_MOTION_DOT":"0.00070820","TIME_SYSTEM":"UTC","ECCENTRICITY":"0.00041180","MEAN_ELEMENT_THEORY":"SGP4","ARG_OF_PERICENTER":"1.8189","OBJECT_ID":"2022-119AL","TLE_LINE2":"2 53920  53.2134 321.2388 0004118   1.8189 191.3383 15.73182534  9711","EPHEMERIS_TYPE":"0","EPOCH":"2022-11-22T22:00:00.999936","MEAN_MOTION":"15.73182534","RCS_SIZE":"LARGE","SEMIMAJOR_AXIS":"6727.945","PERIAPSIS":"347.039","DECAY_DATE":null,"BSTAR":"0.00050497000000","MEAN_MOTION_DDOT":"0.0000000000000","REV_AT_EPOCH":"971","INCLINATION":"53.2134","PERIOD":"91.534","MEAN_ANOMALY":"191.3383","CENTER_NAME":"EARTH","COUNTRY_CODE":"US","LAUNCH_DATE":"2022-09-24","OBJECT_NAME":"STARLINK-5025","TLE_LINE1":"1 53920U 22119AL  22326.91667824  .00070820  00000-0  50497-3 0  9997"},{"MEAN_MOTION_DOT":"-0.00020670","ECCENTRICITY":"0.00041360","MEAN_ELEMENT_THEORY":"SGP4","TIME_SYSTEM":"UTC","ARG_OF_PERICENTER":"1.9717","EPHEMERIS_TYPE":"0","OBJECT_ID":"2022-119AN","TLE_LINE2":"2 53922  53.2120 321.2366 0004136   1.9717 191.7628 15.73208269  1309","CLASSIFICATION_TYPE":"U","SITE":"AFETR","FILE":"3667517","REF_FRAME":"TEME","APOAPSIS":"352.519","OBJECT_TYPE":"PAYLOAD","GP_ID":"218506804","ELEMENT_SET_NO":"999","RA_OF_ASC_NODE":"321.2366","NORAD_CAT_ID":"53922","DECAY_DATE":null,"SEMIMAJOR_AXIS":"6727.872","PERIAPSIS":"346.954","PERIOD":"91.533","MEAN_ANOMALY":"191.7628","CENTER_NAME":"EARTH","MEAN_MOTION_DDOT":"0.0000000000000","BSTAR":"-0.00014306000000","REV_AT_EPOCH":"130","INCLINATION":"53.2120","COUNTRY_CODE":"US","LAUNCH_DATE":"2022-09-24","OBJECT_NAME":"STARLINK-5002","TLE_LINE1":"1 53922U 22119AN  22326.91667824 -.00020670  00000-0 -14306-3 0  9998","EPOCH":"2022-11-22T22:00:00.999936","RCS_SIZE":"LARGE","MEAN_MOTION":"15.73208269"},{"EPOCH":"2022-11-22T22:00:00.999936","MEAN_MOTION":"15.73175865","RCS_SIZE":"LARGE","COUNTRY_CODE":"US","TLE_LINE1":"1 53923U 22119AP  22326.91667824  .00018937  00000-0  13916-3 0  9996","LAUNCH_DATE":"2022-09-24","OBJECT_NAME":"STARLINK-5004","DECAY_DATE":null,"PERIAPSIS":"347.234","SEMIMAJOR_AXIS":"6727.964","CENTER_NAME":"EARTH","MEAN_ANOMALY":"191.0237","PERIOD":"91.535","MEAN_MOTION_DDOT":"0.0000000000000","REV_AT_EPOCH":"130","BSTAR":"0.00013916000000","INCLINATION":"53.2134","APOAPSIS":"352.424","GP_ID":"218506641","ELEMENT_SET_NO":"999","OBJECT_TYPE":"PAYLOAD","RA_OF_ASC_NODE":"321.2412","NORAD_CAT_ID":"53923","FILE":"3667517","CLASSIFICATION_TYPE":"U","SITE":"AFETR","REF_FRAME":"TEME","ARG_OF_PERICENTER":"1.5488","EPHEMERIS_TYPE":"0","TLE_LINE2":"2 53923  53.2134 321.2412 0003857   1.5488 191.0237 15.73175865  1301","OBJECT_ID":"2022-119AP","MEAN_MOTION_DOT":"0.00018937","ECCENTRICITY":"0.00038570","MEAN_ELEMENT_THEORY":"SGP4","TIME_SYSTEM":"UTC"},{"COUNTRY_CODE":"US","TLE_LINE1":"1 53924U 22119AQ  22326.91667824  .00017338  00000-0  12772-3 0  9990","OBJECT_NAME":"STARLINK-5001","LAUNCH_DATE":"2022-09-24","PERIAPSIS":"347.099","SEMIMAJOR_AXIS":"6727.920","DECAY_DATE":null,"MEAN_MOTION_DDOT":"0.0000000000000","REV_AT_EPOCH":"130","BSTAR":"0.00012772000000","INCLINATION":"53.2136","CENTER_NAME":"EARTH","MEAN_ANOMALY":"188.4790","PERIOD":"91.534","EPOCH":"2022-11-22T22:00:00.999936","MEAN_MOTION":"15.73191235","RCS_SIZE":"LARGE","ARG_OF_PERICENTER":"7.0263","TLE_LINE2":"2 53924  53.2136 321.2348 0003992   7.0263 188.4790 15.73191235  1307","OBJECT_ID":"2022-119AQ","EPHEMERIS_TYPE":"0","MEAN_MOTION_DOT":"0.00017338","TIME_SYSTEM":"UTC","MEAN_ELEMENT_THEORY":"SGP4","ECCENTRICITY":"0.00039920","GP_ID":"218505820","ELEMENT_SET_NO":"999","OBJECT_TYPE":"PAYLOAD","APOAPSIS":"352.471","NORAD_CAT_ID":"53924","RA_OF_ASC_NODE":"321.2348","REF_FRAME":"TEME","FILE":"3667517","SITE":"AFETR","CLASSIFICATION_TYPE":"U"},{"MEAN_MOTION_DOT":"-0.00025249","ECCENTRICITY":"0.00040340","MEAN_ELEMENT_THEORY":"SGP4","TIME_SYSTEM":"UTC","ARG_OF_PERICENTER":"4.7914","EPHEMERIS_TYPE":"0","OBJECT_ID":"2022-119AR","TLE_LINE2":"2 53925  53.2130 321.2451 0004034   4.7914 186.5418 15.73216750  1308","SITE":"AFETR","CLASSIFICATION_TYPE":"U","FILE":"3667517","REF_FRAME":"TEME","APOAPSIS":"352.426","OBJECT_TYPE":"PAYLOAD","ELEMENT_SET_NO":"999","GP_ID":"218505984","RA_OF_ASC_NODE":"321.2451","NORAD_CAT_ID":"53925","DECAY_DATE":null,"SEMIMAJOR_AXIS":"6727.847","PERIAPSIS":"346.998","PERIOD":"91.532","MEAN_ANOMALY":"186.5418","CENTER_NAME":"EARTH","MEAN_MOTION_DDOT":"0.0000000000000","BSTAR":"-0.00017577000000","REV_AT_EPOCH":"130","INCLINATION":"53.2130","COUNTRY_CODE":"US","LAUNCH_DATE":"2022-09-24","OBJECT_NAME":"STARLINK-5011","TLE_LINE1":"1 53925U 22119AR  22326.91667824 -.00025249  00000-0 -17577-3 0  9991","EPOCH":"2022-11-22T22:00:00.999936","RCS_SIZE":"LARGE","MEAN_MOTION":"15.73216750"}];
